{
 "type": "FeatureCollection",
 "features": [
  {
   "type": "Feature",
   "properties": {
    "fid": "p1787132009799",
    "num": "7",
    "status": "draft",
    "owner_id": "potocka",
    "owner_ids": [
     "potocka",
     "plebania_yakimowicze"
    ],
    "chast": 7,
    "uezd": "rechitsa"
   },
   "geometry": {
    "type": "Polygon",
    "coordinates": [
     [
      [
       14617.31138068831,
       11788.88425594212
      ],
      [
       15194.310514136532,
       11341.992770232222
      ],
      [
       15499.780643609121,
       10838.532742027399
      ],
      [
       15844.848752828157,
       10895.101284522323
      ],
      [
       15782.623356083739,
       11217.541976743389
      ],
      [
       15726.054813588817,
       11375.933895729177
      ],
      [
       15748.682230586784,
       11483.414126469532
      ],
      [
       15754.339084836278,
       12145.26607366014
      ],
      [
       15946.672129319018,
       12184.864053406585
      ],
      [
       16037.181797310897,
       12128.295510911663
      ],
      [
       16144.662028051252,
       12173.5503449076
      ],
      [
       16342.651926783485,
       12326.285409643895
      ],
      [
       16563.26924251369,
       12281.030575647957
      ],
      [
       16744.288578497446,
       12314.97170114491
      ],
      [
       16755.60228699643,
       12433.76564038425
      ],
      [
       16619.83778500861,
       13689.58728377156
      ],
      [
       16752,
       13756
      ],
      [
       17044,
       13612
      ],
      [
       17176,
       13476
      ],
      [
       17312,
       13512
      ],
      [
       17280,
       13728
      ],
      [
       17440,
       14004
      ],
      [
       17580,
       13864
      ],
      [
       17688,
       13888
      ],
      [
       17620,
       14020
      ],
      [
       17500,
       14116
      ],
      [
       17676,
       14388
      ],
      [
       17744,
       14748
      ],
      [
       17416,
       14716
      ],
      [
       17388,
       14876
      ],
      [
       17068,
       14876
      ],
      [
       17048,
       15264
      ],
      [
       16936,
       15236
      ],
      [
       16852,
       15144
      ],
      [
       16644,
       15148
      ],
      [
       16476,
       14896
      ],
      [
       16427.752368396566,
       15324.496271583694
      ],
      [
       16178.847029481469,
       15304.314757617605
      ],
      [
       15903.03300527825,
       15600.310295786912
      ],
      [
       15876.124319990131,
       16091.393802295082
      ],
      [
       13420.706787449284,
       15956.850375854488
      ],
      [
       13616.048178528159,
       13135.215567321306
      ],
      [
       13128,
       13096
      ],
      [
       12876,
       12812
      ],
      [
       12672,
       12624
      ],
      [
       12560,
       12352
      ],
      [
       14032,
       12400
      ],
      [
       14408.007773457091,
       12054.756405668262
      ],
      [
       14492.860587199477,
       11952.933029177399
      ],
      [
       14453.26260745303,
       11828.482235688567
      ],
      [
       14617.31138068831,
       11788.88425594212
      ]
     ]
    ]
   },
   "_ring": [
    [
     14617.31138068831,
     11788.88425594212
    ],
    [
     15194.310514136532,
     11341.992770232222
    ],
    [
     15499.780643609121,
     10838.532742027399
    ],
    [
     15844.848752828157,
     10895.101284522323
    ],
    [
     15782.623356083739,
     11217.541976743389
    ],
    [
     15726.054813588817,
     11375.933895729177
    ],
    [
     15748.682230586784,
     11483.414126469532
    ],
    [
     15754.339084836278,
     12145.26607366014
    ],
    [
     15946.672129319018,
     12184.864053406585
    ],
    [
     16037.181797310897,
     12128.295510911663
    ],
    [
     16144.662028051252,
     12173.5503449076
    ],
    [
     16342.651926783485,
     12326.285409643895
    ],
    [
     16563.26924251369,
     12281.030575647957
    ],
    [
     16744.288578497446,
     12314.97170114491
    ],
    [
     16755.60228699643,
     12433.76564038425
    ],
    [
     16619.83778500861,
     13689.58728377156
    ],
    [
     16752,
     13756
    ],
    [
     17044,
     13612
    ],
    [
     17176,
     13476
    ],
    [
     17312,
     13512
    ],
    [
     17280,
     13728
    ],
    [
     17440,
     14004
    ],
    [
     17580,
     13864
    ],
    [
     17688,
     13888
    ],
    [
     17620,
     14020
    ],
    [
     17500,
     14116
    ],
    [
     17676,
     14388
    ],
    [
     17744,
     14748
    ],
    [
     17416,
     14716
    ],
    [
     17388,
     14876
    ],
    [
     17068,
     14876
    ],
    [
     17048,
     15264
    ],
    [
     16936,
     15236
    ],
    [
     16852,
     15144
    ],
    [
     16644,
     15148
    ],
    [
     16476,
     14896
    ],
    [
     16427.752368396566,
     15324.496271583694
    ],
    [
     16178.847029481469,
     15304.314757617605
    ],
    [
     15903.03300527825,
     15600.310295786912
    ],
    [
     15876.124319990131,
     16091.393802295082
    ],
    [
     13420.706787449284,
     15956.850375854488
    ],
    [
     13616.048178528159,
     13135.215567321306
    ],
    [
     13128,
     13096
    ],
    [
     12876,
     12812
    ],
    [
     12672,
     12624
    ],
    [
     12560,
     12352
    ],
    [
     14032,
     12400
    ],
    [
     14408.007773457091,
     12054.756405668262
    ],
    [
     14492.860587199477,
     11952.933029177399
    ],
    [
     14453.26260745303,
     11828.482235688567
    ],
    [
     14617.31138068831,
     11788.88425594212
    ]
   ],
   "_area": 14244190.965531051,
   "_parentFid": null
  },
  {
   "type": "Feature",
   "properties": {
    "fid": "p1787142664946",
    "num": "12",
    "status": "draft",
    "owner_id": "klasztor_rechitsa",
    "chast": 1,
    "uezd": "rechitsa"
   },
   "geometry": {
    "type": "Polygon",
    "coordinates": [
     [
      [
       16452.960584648587,
       18082.13460850239
      ],
      [
       17219.464335454802,
       18116.075733999347
      ],
      [
       17420.282661311783,
       17793.63504177828
      ],
      [
       17468.36592243247,
       17901.115272518637
      ],
      [
       17536.24817342638,
       17923.742689516606
      ],
      [
       17589.988288796554,
       17988.79651338577
      ],
      [
       17476.85120380671,
       18478.11440596686
      ],
      [
       16435.99002190011,
       18418.71743634719
      ],
      [
       16452.960584648587,
       18082.13460850239
      ]
     ]
    ]
   },
   "_ring": [
    [
     16452.960584648587,
     18082.13460850239
    ],
    [
     17219.464335454802,
     18116.075733999347
    ],
    [
     17420.282661311783,
     17793.63504177828
    ],
    [
     17468.36592243247,
     17901.115272518637
    ],
    [
     17536.24817342638,
     17923.742689516606
    ],
    [
     17589.988288796554,
     17988.79651338577
    ],
    [
     17476.85120380671,
     18478.11440596686
    ],
    [
     16435.99002190011,
     18418.71743634719
    ],
    [
     16452.960584648587,
     18082.13460850239
    ]
   ],
   "_area": 437636.0000000298,
   "_parentFid": null
  },
  {
   "type": "Feature",
   "properties": {
    "fid": "p1787142781510",
    "num": "27",
    "status": "draft",
    "chast": 2,
    "uezd": "rechitsa"
   },
   "geometry": {
    "type": "Polygon",
    "coordinates": [
     [
      [
       13721,
       24707
      ],
      [
       14063,
       24724
      ],
      [
       14047,
       25002
      ],
      [
       13705,
       24981
      ],
      [
       13721,
       24707
      ]
     ]
    ]
   },
   "_ring": [
    [
     13721,
     24707
    ],
    [
     14063,
     24724
    ],
    [
     14047,
     25002
    ],
    [
     13705,
     24981
    ],
    [
     13721,
     24707
    ]
   ],
   "_area": 94696,
   "_parentFid": null
  },
  {
   "type": "Feature",
   "properties": {
    "fid": "p1787142824215",
    "num": "47",
    "status": "draft",
    "owner_id": "stocki_adam",
    "chast": 5,
    "uezd": "rechitsa"
   },
   "geometry": {
    "type": "Polygon",
    "coordinates": [
     [
      [
       10692.838816366235,
       18499.72113558172
      ],
      [
       11890.275311687525,
       18587.174362768106
      ],
      [
       11947.456267924777,
       18671.26400429348
      ],
      [
       11167.104394569329,
       19616.431575038652
      ],
      [
       10531.386704637522,
       19586.15930408952
      ],
      [
       10503,
       20954
      ],
      [
       10498,
       21166
      ],
      [
       10155,
       21118
      ],
      [
       10114,
       20922
      ],
      [
       9877,
       20651
      ],
      [
       10049,
       20665
      ],
      [
       10070.575469078485,
       19939.33579849608
      ],
      [
       10396.843278196928,
       19202.710538733827
      ],
      [
       10672.657302400145,
       19212.801295716872
      ],
      [
       10692.838816366235,
       18499.72113558172
      ]
     ]
    ]
   },
   "_ring": [
    [
     10692.838816366235,
     18499.72113558172
    ],
    [
     11890.275311687525,
     18587.174362768106
    ],
    [
     11947.456267924777,
     18671.26400429348
    ],
    [
     11167.104394569329,
     19616.431575038652
    ],
    [
     10531.386704637522,
     19586.15930408952
    ],
    [
     10503,
     20954
    ],
    [
     10498,
     21166
    ],
    [
     10155,
     21118
    ],
    [
     10114,
     20922
    ],
    [
     9877,
     20651
    ],
    [
     10049,
     20665
    ],
    [
     10070.575469078485,
     19939.33579849608
    ],
    [
     10396.843278196928,
     19202.710538733827
    ],
    [
     10672.657302400145,
     19212.801295716872
    ],
    [
     10692.838816366235,
     18499.72113558172
    ]
   ],
   "_area": 1795701.353974849,
   "_parentFid": null
  },
  {
   "type": "Feature",
   "properties": {
    "fid": "p1787142989968",
    "num": "61",
    "status": "draft",
    "chast": 6,
    "uezd": "rechitsa"
   },
   "geometry": {
    "type": "Polygon",
    "coordinates": [
     [
      [
       10405.252242349465,
       14539.099019736725
      ],
      [
       10635.657860128982,
       14423.055314431713
      ],
      [
       10972.016426230468,
       14164.059218533568
      ],
      [
       10933.335191128797,
       14838.458143567048
      ],
      [
       10396.843278196928,
       14804.822286956898
      ],
      [
       10405.252242349465,
       14539.099019736725
      ]
     ]
    ]
   },
   "_ring": [
    [
     10405.252242349465,
     14539.099019736725
    ],
    [
     10635.657860128982,
     14423.055314431713
    ],
    [
     10972.016426230468,
     14164.059218533568
    ],
    [
     10933.335191128797,
     14838.458143567048
    ],
    [
     10396.843278196928,
     14804.822286956898
    ],
    [
     10405.252242349465,
     14539.099019736725
    ]
   ],
   "_area": 244958.75956577063,
   "_parentFid": null
  },
  {
   "type": "Feature",
   "properties": {
    "fid": "p1787143072255",
    "num": "54",
    "status": "draft",
    "chast": 5,
    "uezd": "rechitsa"
   },
   "geometry": {
    "type": "Polygon",
    "coordinates": [
     [
      [
       12917.426678715849,
       18166.987422244776
      ],
      [
       13442.099910356268,
       18198.100120616986
      ],
      [
       13451.99940529288,
       18749.64340994249
      ],
      [
       12890.55662103076,
       18714.288070883165
      ],
      [
       12917.426678715849,
       18166.987422244776
      ]
     ]
    ]
   },
   "_ring": [
    [
     12917.426678715849,
     18166.987422244776
    ],
    [
     13442.099910356268,
     18198.100120616986
    ],
    [
     13451.99940529288,
     18749.64340994249
    ],
    [
     12890.55662103076,
     18714.288070883165
    ],
    [
     12917.426678715849,
     18166.987422244776
    ]
   ],
   "_area": 298650.0000000149,
   "_parentFid": null
  },
  {
   "type": "Feature",
   "properties": {
    "fid": "p1787143102887",
    "num": "66",
    "status": "draft",
    "chast": 6,
    "uezd": "rechitsa"
   },
   "geometry": {
    "type": "Polygon",
    "coordinates": [
     [
      [
       9780.03931378238,
       15440.66518119533
      ],
      [
       10151.071933663228,
       15466.82773772539
      ],
      [
       10143.93669097321,
       15871.158156826315
      ],
      [
       9753.87675725232,
       15837.86035760624
      ],
      [
       9780.03931378238,
       15440.66518119533
      ]
     ]
    ]
   },
   "_ring": [
    [
     9780.03931378238,
     15440.66518119533
    ],
    [
     10151.071933663228,
     15466.82773772539
    ],
    [
     10143.93669097321,
     15871.158156826315
    ],
    [
     9753.87675725232,
     15837.86035760624
    ],
    [
     9780.03931378238,
     15440.66518119533
    ]
   ],
   "_area": 153003.7653131485,
   "_parentFid": null
  },
  {
   "type": "Feature",
   "properties": {
    "fid": "p1787574267238",
    "num": "18",
    "status": "draft",
    "owner_id": "wolowicz",
    "chast": 1,
    "uezd": "rechitsa"
   },
   "geometry": {
    "type": "Polygon",
    "coordinates": [
     [
      [
       16939.06614609876,
       19369.805489164322
      ],
      [
       18449.359182152217,
       19457.806815674525
      ],
      [
       18492.170638292315,
       18803.742902423026
      ],
      [
       19158.12662269384,
       18841.797530103115
      ],
      [
       19215.20856421397,
       19186.6675934539
      ],
      [
       19336.507689944247,
       19243.749534974035
      ],
      [
       19262.776848814075,
       19493.483029124603
      ],
      [
       19624.295811774904,
       19912.08393360556
      ],
      [
       19792,
       20036
      ],
      [
       19985.814774735732,
       20031.004645105833
      ],
      [
       19764,
       20152
      ],
      [
       19864.515649005454,
       20397.28043652667
      ],
      [
       18932.17727084332,
       20325.92800962651
      ],
      [
       18856,
       21564
      ],
      [
       16848.686405358552,
       21448.539526189077
      ],
      [
       16939.06614609876,
       19369.805489164322
      ]
     ]
    ]
   },
   "_ring": [
    [
     16939.06614609876,
     19369.805489164322
    ],
    [
     18449.359182152217,
     19457.806815674525
    ],
    [
     18492.170638292315,
     18803.742902423026
    ],
    [
     19158.12662269384,
     18841.797530103115
    ],
    [
     19215.20856421397,
     19186.6675934539
    ],
    [
     19336.507689944247,
     19243.749534974035
    ],
    [
     19262.776848814075,
     19493.483029124603
    ],
    [
     19624.295811774904,
     19912.08393360556
    ],
    [
     19792,
     20036
    ],
    [
     19985.814774735732,
     20031.004645105833
    ],
    [
     19764,
     20152
    ],
    [
     19864.515649005454,
     20397.28043652667
    ],
    [
     18932.17727084332,
     20325.92800962651
    ],
    [
     18856,
     21564
    ],
    [
     16848.686405358552,
     21448.539526189077
    ],
    [
     16939.06614609876,
     19369.805489164322
    ]
   ],
   "_area": 5305129.582941711,
   "_parentFid": null
  },
  {
   "type": "Feature",
   "properties": {
    "fid": "p1787575759595",
    "num": "19",
    "status": "draft",
    "owner_id": "judycki",
    "chast": 7,
    "uezd": "rechitsa"
   },
   "geometry": {
    "type": "Polygon",
    "coordinates": [
     [
      [
       18927.42044238331,
       20330.68483808652
      ],
      [
       19869.272477465463,
       20335.441666546532
      ],
      [
       20287.87338194642,
       22709.099068091964
      ],
      [
       19912.126958213175,
       23323.21007065708
      ],
      [
       19550.088286245664,
       23611.709637381195
      ],
      [
       19063.59882078932,
       23792.72897336495
      ],
      [
       18701.56014882181,
       24392.35552381114
      ],
      [
       18379.119456600743,
       24403.669232310127
      ],
      [
       18441.34485334516,
       24941.070386011903
      ],
      [
       18249.01180886242,
       25591.608624703527
      ],
      [
       17492,
       26224
      ],
      [
       16564,
       26716
      ],
      [
       16572,
       26864
      ],
      [
       16016,
       26828
      ],
      [
       15980,
       27612
      ],
      [
       16112,
       27624
      ],
      [
       16092,
       27928
      ],
      [
       15528,
       27900
      ],
      [
       15600,
       26548
      ],
      [
       14716,
       26488
      ],
      [
       14792,
       25500
      ],
      [
       16124,
       25596
      ],
      [
       16184,
       25052
      ],
      [
       16500,
       25080
      ],
      [
       16500,
       25272
      ],
      [
       16732,
       25288
      ],
      [
       16766.915995495412,
       24793.9921755251
      ],
      [
       16557.612388264195,
       24782.678467026115
      ],
      [
       16744.288578497446,
       24352.757544064694
      ],
      [
       17462.709068182976,
       22480.338787482717
      ],
      [
       17598.473570170794,
       21496.046148071044
      ],
      [
       18860.824843943155,
       21567.46023768935
      ],
      [
       18927.42044238331,
       20330.68483808652
      ]
     ]
    ]
   },
   "_ring": [
    [
     18927.42044238331,
     20330.68483808652
    ],
    [
     19869.272477465463,
     20335.441666546532
    ],
    [
     20287.87338194642,
     22709.099068091964
    ],
    [
     19912.126958213175,
     23323.21007065708
    ],
    [
     19550.088286245664,
     23611.709637381195
    ],
    [
     19063.59882078932,
     23792.72897336495
    ],
    [
     18701.56014882181,
     24392.35552381114
    ],
    [
     18379.119456600743,
     24403.669232310127
    ],
    [
     18441.34485334516,
     24941.070386011903
    ],
    [
     18249.01180886242,
     25591.608624703527
    ],
    [
     17492,
     26224
    ],
    [
     16564,
     26716
    ],
    [
     16572,
     26864
    ],
    [
     16016,
     26828
    ],
    [
     15980,
     27612
    ],
    [
     16112,
     27624
    ],
    [
     16092,
     27928
    ],
    [
     15528,
     27900
    ],
    [
     15600,
     26548
    ],
    [
     14716,
     26488
    ],
    [
     14792,
     25500
    ],
    [
     16124,
     25596
    ],
    [
     16184,
     25052
    ],
    [
     16500,
     25080
    ],
    [
     16500,
     25272
    ],
    [
     16732,
     25288
    ],
    [
     16766.915995495412,
     24793.9921755251
    ],
    [
     16557.612388264195,
     24782.678467026115
    ],
    [
     16744.288578497446,
     24352.757544064694
    ],
    [
     17462.709068182976,
     22480.338787482717
    ],
    [
     17598.473570170794,
     21496.046148071044
    ],
    [
     18860.824843943155,
     21567.46023768935
    ],
    [
     18927.42044238331,
     20330.68483808652
    ]
   ],
   "_area": 14465905.329176724,
   "_parentFid": null
  },
  {
   "type": "Feature",
   "properties": {
    "fid": "p1790692013894",
    "num": "24",
    "status": "draft",
    "chast": 2,
    "uezd": "rechitsa"
   },
   "geometry": {
    "type": "Polygon",
    "coordinates": [
     [
      [
       13756.747906351478,
       24136.147606095226
      ],
      [
       13956.534701671935,
       24140.90443455524
      ],
      [
       13980.318843971989,
       23817.4400992745
      ],
      [
       13587.880496021091,
       23432.136994013617
      ],
      [
       13602.150981401124,
       23320.35152520336
      ],
      [
       14063.56334202218,
       23346.51408173342
      ],
      [
       14203.889781592501,
       23446.40747939365
      ],
      [
       14184.862467752457,
       23653.329517404123
      ],
      [
       14289.512693872697,
       23831.71058465453
      ],
      [
       14524.975702643236,
       23843.60265580456
      ],
      [
       14467.893761123105,
       24749.778477436634
      ],
      [
       13723.450107131403,
       24704.58860706653
      ],
      [
       13756.747906351478,
       24136.147606095226
      ]
     ]
    ]
   },
   "_ring": [
    [
     13756.747906351478,
     24136.147606095226
    ],
    [
     13956.534701671935,
     24140.90443455524
    ],
    [
     13980.318843971989,
     23817.4400992745
    ],
    [
     13587.880496021091,
     23432.136994013617
    ],
    [
     13602.150981401124,
     23320.35152520336
    ],
    [
     14063.56334202218,
     23346.51408173342
    ],
    [
     14203.889781592501,
     23446.40747939365
    ],
    [
     14184.862467752457,
     23653.329517404123
    ],
    [
     14289.512693872697,
     23831.71058465453
    ],
    [
     14524.975702643236,
     23843.60265580456
    ],
    [
     14467.893761123105,
     24749.778477436634
    ],
    [
     13723.450107131403,
     24704.58860706653
    ],
    [
     13756.747906351478,
     24136.147606095226
    ]
   ],
   "_area": 827620.4041177034,
   "_parentFid": null
  },
  {
   "type": "Feature",
   "properties": {
    "fid": "p1790692053434",
    "num": "25",
    "status": "draft",
    "chast": 2,
    "uezd": "rechitsa"
   },
   "geometry": {
    "type": "Polygon",
    "coordinates": [
     [
      [
       13392.850529160645,
       23777.007057364408
      ],
      [
       13778.153634421527,
       23800.79119966446
      ],
      [
       13766.2615632715,
       24019.60530882496
      ],
      [
       13461.824541830803,
       24005.33482344493
      ],
      [
       13459.446127600797,
       23972.037024224854
      ],
      [
       13376.201629550607,
       23962.52336730483
      ],
      [
       13392.850529160645,
       23777.007057364408
      ]
     ]
    ]
   },
   "_ring": [
    [
     13392.850529160645,
     23777.007057364408
    ],
    [
     13778.153634421527,
     23800.79119966446
    ],
    [
     13766.2615632715,
     24019.60530882496
    ],
    [
     13461.824541830803,
     24005.33482344493
    ],
    [
     13459.446127600797,
     23972.037024224854
    ],
    [
     13376.201629550607,
     23962.52336730483
    ],
    [
     13392.850529160645,
     23777.007057364408
    ]
   ],
   "_area": 83483.85501402617,
   "_parentFid": null
  },
  {
   "type": "Feature",
   "properties": {
    "fid": "p1790692093003",
    "num": "26",
    "status": "draft",
    "chast": 2,
    "uezd": "rechitsa"
   },
   "geometry": {
    "type": "Polygon",
    "coordinates": [
     [
      [
       13430.905156840732,
       24535.721196736144
      ],
      [
       13732.963764051423,
       24444.15224888093
      ],
      [
       13722.2609000164,
       24716.480678216554
      ],
      [
       13705.612000406361,
       24981.67386486216
      ],
      [
       13533.176968730966,
       24974.538622172146
      ],
      [
       13430.905156840732,
       24535.721196736144
      ]
     ]
    ]
   },
   "_ring": [
    [
     13430.905156840732,
     24535.721196736144
    ],
    [
     13732.963764051423,
     24444.15224888093
    ],
    [
     13722.2609000164,
     24716.480678216554
    ],
    [
     13705.612000406361,
     24981.67386486216
    ],
    [
     13533.176968730966,
     24974.538622172146
    ],
    [
     13430.905156840732,
     24535.721196736144
    ]
   ],
   "_area": 118245.93148392439,
   "_parentFid": null
  },
  {
   "type": "Feature",
   "properties": {
    "fid": "p1790692135936",
    "num": "31",
    "status": "draft",
    "chast": 3,
    "uezd": "rechitsa"
   },
   "geometry": {
    "type": "Polygon",
    "coordinates": [
     [
      [
       12448.63053141599,
       26599.2354073055
      ],
      [
       13050.71236473765,
       26636.234849576664
      ],
      [
       13023.803679449531,
       27076.864571169608
      ],
      [
       12411.631089144827,
       27033.137957576415
      ],
      [
       12448.63053141599,
       26599.2354073055
      ]
     ]
    ]
   },
   "_ring": [
    [
     12448.63053141599,
     26599.2354073055
    ],
    [
     13050.71236473765,
     26636.234849576664
    ],
    [
     13023.803679449531,
     27076.864571169608
    ],
    [
     12411.631089144827,
     27033.137957576415
    ],
    [
     12448.63053141599,
     26599.2354073055
    ]
   ],
   "_area": 266765.93269756436,
   "_parentFid": null
  },
  {
   "type": "Feature",
   "properties": {
    "fid": "p1790692156419",
    "num": "32",
    "status": "draft",
    "chast": 3,
    "uezd": "rechitsa"
   },
   "geometry": {
    "type": "Polygon",
    "coordinates": [
     [
      [
       11713.687064484244,
       26547.099829559767
      ],
      [
       12441.90336009396,
       26594.190028813977
      ],
      [
       12430.130810280409,
       26806.095925457914
      ],
      [
       11762.45905656896,
       26757.323933373198
      ],
      [
       11713.687064484244,
       26547.099829559767
      ]
     ]
    ]
   },
   "_ring": [
    [
     11713.687064484244,
     26547.099829559767
    ],
    [
     12441.90336009396,
     26594.190028813977
    ],
    [
     12430.130810280409,
     26806.095925457914
    ],
    [
     11762.45905656896,
     26757.323933373198
    ],
    [
     11713.687064484244,
     26547.099829559767
    ]
   ],
   "_area": 146424.84382095933,
   "_parentFid": null
  },
  {
   "type": "Feature",
   "properties": {
    "fid": "p1790692194054",
    "num": "41",
    "status": "draft",
    "chast": 4,
    "uezd": "rechitsa"
   },
   "geometry": {
    "type": "Polygon",
    "coordinates": [
     [
      [
       15524,
       20152
      ],
      [
       16456,
       20208
      ],
      [
       16432,
       20528
      ],
      [
       15892,
       20492
      ],
      [
       15836,
       21416
      ],
      [
       14692,
       21352
      ],
      [
       14660,
       21784
      ],
      [
       14308,
       21768
      ],
      [
       14260,
       22460
      ],
      [
       14060,
       22424
      ],
      [
       13216,
       22928
      ],
      [
       13176,
       23628
      ],
      [
       12356,
       23560
      ],
      [
       11972,
       22528
      ],
      [
       12032,
       22092
      ],
      [
       12356,
       22116
      ],
      [
       12344,
       22336
      ],
      [
       12664,
       22364
      ],
      [
       12668,
       22152
      ],
      [
       13520,
       21624
      ],
      [
       13496,
       20204
      ],
      [
       13828,
       20084
      ],
      [
       14508,
       20076
      ],
      [
       14580,
       19300
      ],
      [
       14492,
       19284
      ],
      [
       14496,
       19168
      ],
      [
       15168,
       19200
      ],
      [
       15524,
       20152
      ]
     ]
    ]
   },
   "_ring": [
    [
     15524,
     20152
    ],
    [
     16456,
     20208
    ],
    [
     16432,
     20528
    ],
    [
     15892,
     20492
    ],
    [
     15836,
     21416
    ],
    [
     14692,
     21352
    ],
    [
     14660,
     21784
    ],
    [
     14308,
     21768
    ],
    [
     14260,
     22460
    ],
    [
     14060,
     22424
    ],
    [
     13216,
     22928
    ],
    [
     13176,
     23628
    ],
    [
     12356,
     23560
    ],
    [
     11972,
     22528
    ],
    [
     12032,
     22092
    ],
    [
     12356,
     22116
    ],
    [
     12344,
     22336
    ],
    [
     12664,
     22364
    ],
    [
     12668,
     22152
    ],
    [
     13520,
     21624
    ],
    [
     13496,
     20204
    ],
    [
     13828,
     20084
    ],
    [
     14508,
     20076
    ],
    [
     14580,
     19300
    ],
    [
     14492,
     19284
    ],
    [
     14496,
     19168
    ],
    [
     15168,
     19200
    ],
    [
     15524,
     20152
    ]
   ],
   "_area": 6907520,
   "_parentFid": null
  },
  {
   "type": "Feature",
   "properties": {
    "fid": "p1790692328640",
    "num": "1",
    "status": "draft",
    "chast": 1,
    "uezd": "rechitsa"
   },
   "geometry": {
    "type": "Polygon",
    "coordinates": [
     [
      [
       13432,
       15960
      ],
      [
       15880,
       16108
      ],
      [
       15792,
       17952
      ],
      [
       16340.299141210182,
       17964.911015480357
      ],
      [
       16361.111488207438,
       17721.56442777055
      ],
      [
       17103.176727969134,
       17764.37588391065
      ],
      [
       17122.20404180918,
       17533.66970360012
      ],
      [
       17300.585109059586,
       17543.183360520143
      ],
      [
       17314.85559443962,
       17509.885561300067
      ],
      [
       17369.559121729744,
       17497.99349015004
      ],
      [
       17531.291289370114,
       17486.10141900001
      ],
      [
       17571.724331280206,
       17376.69436441976
      ],
      [
       17650.212000870386,
       17324.36925135964
      ],
      [
       17635.941515490355,
       17264.908895609504
      ],
      [
       17647.833586640383,
       17174.5291548693
      ],
      [
       17676.374557400446,
       17184.04281178932
      ],
      [
       17747.72698430061,
       17302.963523289593
      ],
      [
       17823.836239660784,
       17307.720351749602
      ],
      [
       17876.161352720905,
       17236.36792484944
      ],
      [
       17938.000122701047,
       17300.585109059586
      ],
      [
       17973.676336151126,
       17374.315950189757
      ],
      [
       18118.759604181458,
       17317.234008669624
      ],
      [
       18047.407177281297,
       17098.419899509125
      ],
      [
       18171.084717241578,
       17034.202715298976
      ],
      [
       18204.382516461654,
       16943.82297455877
      ],
      [
       18413.682968702135,
       16884.362618808635
      ],
      [
       18496.927466752324,
       16881.984204578628
      ],
      [
       18542.11733712243,
       16981.87760223886
      ],
      [
       18703.8495047628,
       17084.149414129093
      ],
      [
       18739.52571821288,
       17262.5304813795
      ],
      [
       18894.122643163235,
       17233.989510619434
      ],
      [
       19017.800183123516,
       17295.828280599577
      ],
      [
       19098.666266943703,
       17374.315950189757
      ],
      [
       19203.31649306394,
       17426.641063249874
      ],
      [
       19258.020020354066,
       17517.020803990083
      ],
      [
       19101.044681173706,
       17585.99481666024
      ],
      [
       18989.25921236345,
       17569.345917050203
      ],
      [
       18870.338500863178,
       17557.453845900174
      ],
      [
       18808.49973088304,
       17564.58908859019
      ],
      [
       18722.876818602843,
       17666.860900480424
      ],
      [
       18684.822190922754,
       17754.862226990626
      ],
      [
       18608.71293556258,
       17785.781611980696
      ],
      [
       18499.30588098233,
       17792.916854670715
      ],
      [
       18468.386495992258,
       17740.591741610595
      ],
      [
       18378.006755252052,
       17721.56442777055
      ],
      [
       18287.627014511847,
       17666.860900480424
      ],
      [
       17992.70364999117,
       17778.64636929068
      ],
      [
       17971.297921921123,
       17821.457825430778
      ],
      [
       18004.5957211412,
       17852.37721042085
      ],
      [
       18004.5957211412,
       17899.94549502096
      ],
      [
       17942.756951161056,
       17933.243294241034
      ],
      [
       17883.29659541092,
       17859.512453110867
      ],
      [
       17771.511126600664,
       17890.431838100936
      ],
      [
       17652.590415100392,
       17866.647695800883
      ],
      [
       17633.563101260348,
       17959.405850771094
      ],
      [
       17588.373230890247,
       17990.325235761164
      ],
      [
       17528.912875140108,
       17926.10805155102
      ],
      [
       17469.45251938997,
       17892.810252330943
      ],
      [
       17417.127406329855,
       17797.673683130724
      ],
      [
       17219.719025239403,
       18121.138018411464
      ],
      [
       16454.661053684686,
       18082.63651361588
      ],
      [
       16424.388782735554,
       18630.9009763613
      ],
      [
       15035.227904736417,
       18566.992848802016
      ],
      [
       15013.291178152776,
       18916.52061030252
      ],
      [
       15788.280210333232,
       18961.77544429846
      ],
      [
       15776.966501834248,
       19298.358272143254
      ],
      [
       15949.500556443765,
       19943.239656585385
      ],
      [
       16913.994205982217,
       19985.666063456578
      ],
      [
       16846.111954988308,
       21450.791314075104
      ],
      [
       16311.164789377322,
       21962.276999870253
      ],
      [
       15940.132169496474,
       22466.500816631407
      ],
      [
       15754.61585955605,
       22437.95984587134
      ],
      [
       15902.077541816387,
       20492.41700572689
      ],
      [
       16439.599157797616,
       20530.471633406978
      ],
      [
       16458.61743889808,
       20209.11180631153
      ],
      [
       15519.579633482344,
       20149.714836691855
      ],
      [
       15171.683097138563,
       19199.36332277714
      ],
      [
       14492.860587199477,
       19176.73590577917
      ],
      [
       14487.203732949985,
       19278.55928227003
      ],
      [
       13457.656259542371,
       19205.02017702663
      ],
      [
       13516,
       17968
      ],
      [
       13432,
       15960
      ]
     ]
    ]
   },
   "_ring": [
    [
     13432,
     15960
    ],
    [
     15880,
     16108
    ],
    [
     15792,
     17952
    ],
    [
     16340.299141210182,
     17964.911015480357
    ],
    [
     16361.111488207438,
     17721.56442777055
    ],
    [
     17103.176727969134,
     17764.37588391065
    ],
    [
     17122.20404180918,
     17533.66970360012
    ],
    [
     17300.585109059586,
     17543.183360520143
    ],
    [
     17314.85559443962,
     17509.885561300067
    ],
    [
     17369.559121729744,
     17497.99349015004
    ],
    [
     17531.291289370114,
     17486.10141900001
    ],
    [
     17571.724331280206,
     17376.69436441976
    ],
    [
     17650.212000870386,
     17324.36925135964
    ],
    [
     17635.941515490355,
     17264.908895609504
    ],
    [
     17647.833586640383,
     17174.5291548693
    ],
    [
     17676.374557400446,
     17184.04281178932
    ],
    [
     17747.72698430061,
     17302.963523289593
    ],
    [
     17823.836239660784,
     17307.720351749602
    ],
    [
     17876.161352720905,
     17236.36792484944
    ],
    [
     17938.000122701047,
     17300.585109059586
    ],
    [
     17973.676336151126,
     17374.315950189757
    ],
    [
     18118.759604181458,
     17317.234008669624
    ],
    [
     18047.407177281297,
     17098.419899509125
    ],
    [
     18171.084717241578,
     17034.202715298976
    ],
    [
     18204.382516461654,
     16943.82297455877
    ],
    [
     18413.682968702135,
     16884.362618808635
    ],
    [
     18496.927466752324,
     16881.984204578628
    ],
    [
     18542.11733712243,
     16981.87760223886
    ],
    [
     18703.8495047628,
     17084.149414129093
    ],
    [
     18739.52571821288,
     17262.5304813795
    ],
    [
     18894.122643163235,
     17233.989510619434
    ],
    [
     19017.800183123516,
     17295.828280599577
    ],
    [
     19098.666266943703,
     17374.315950189757
    ],
    [
     19203.31649306394,
     17426.641063249874
    ],
    [
     19258.020020354066,
     17517.020803990083
    ],
    [
     19101.044681173706,
     17585.99481666024
    ],
    [
     18989.25921236345,
     17569.345917050203
    ],
    [
     18870.338500863178,
     17557.453845900174
    ],
    [
     18808.49973088304,
     17564.58908859019
    ],
    [
     18722.876818602843,
     17666.860900480424
    ],
    [
     18684.822190922754,
     17754.862226990626
    ],
    [
     18608.71293556258,
     17785.781611980696
    ],
    [
     18499.30588098233,
     17792.916854670715
    ],
    [
     18468.386495992258,
     17740.591741610595
    ],
    [
     18378.006755252052,
     17721.56442777055
    ],
    [
     18287.627014511847,
     17666.860900480424
    ],
    [
     17992.70364999117,
     17778.64636929068
    ],
    [
     17971.297921921123,
     17821.457825430778
    ],
    [
     18004.5957211412,
     17852.37721042085
    ],
    [
     18004.5957211412,
     17899.94549502096
    ],
    [
     17942.756951161056,
     17933.243294241034
    ],
    [
     17883.29659541092,
     17859.512453110867
    ],
    [
     17771.511126600664,
     17890.431838100936
    ],
    [
     17652.590415100392,
     17866.647695800883
    ],
    [
     17633.563101260348,
     17959.405850771094
    ],
    [
     17588.373230890247,
     17990.325235761164
    ],
    [
     17528.912875140108,
     17926.10805155102
    ],
    [
     17469.45251938997,
     17892.810252330943
    ],
    [
     17417.127406329855,
     17797.673683130724
    ],
    [
     17219.719025239403,
     18121.138018411464
    ],
    [
     16454.661053684686,
     18082.63651361588
    ],
    [
     16424.388782735554,
     18630.9009763613
    ],
    [
     15035.227904736417,
     18566.992848802016
    ],
    [
     15013.291178152776,
     18916.52061030252
    ],
    [
     15788.280210333232,
     18961.77544429846
    ],
    [
     15776.966501834248,
     19298.358272143254
    ],
    [
     15949.500556443765,
     19943.239656585385
    ],
    [
     16913.994205982217,
     19985.666063456578
    ],
    [
     16846.111954988308,
     21450.791314075104
    ],
    [
     16311.164789377322,
     21962.276999870253
    ],
    [
     15940.132169496474,
     22466.500816631407
    ],
    [
     15754.61585955605,
     22437.95984587134
    ],
    [
     15902.077541816387,
     20492.41700572689
    ],
    [
     16439.599157797616,
     20530.471633406978
    ],
    [
     16458.61743889808,
     20209.11180631153
    ],
    [
     15519.579633482344,
     20149.714836691855
    ],
    [
     15171.683097138563,
     19199.36332277714
    ],
    [
     14492.860587199477,
     19176.73590577917
    ],
    [
     14487.203732949985,
     19278.55928227003
    ],
    [
     13457.656259542371,
     19205.02017702663
    ],
    [
     13516,
     17968
    ],
    [
     13432,
     15960
    ]
   ],
   "_area": 11365123.417804748,
   "_parentFid": null
  },
  {
   "type": "Feature",
   "properties": {
    "fid": "p1790692567351",
    "num": "22",
    "status": "draft",
    "chast": 3,
    "uezd": "rechitsa"
   },
   "geometry": {
    "type": "Polygon",
    "coordinates": [
     [
      [
       14574.884973817116,
       28674.594190676875
      ],
      [
       14487.203732949985,
       28634.996210930425
      ],
      [
       14555.085983943893,
       27718.58582251266
      ],
      [
       14843.585550668005,
       27735.556385261138
      ],
      [
       14803.987570921558,
       28335.18293570733
      ],
      [
       15134.913544516861,
       28352.15349845581
      ],
      [
       15098.143991895162,
       28847.128245286392
      ],
      [
       14597.512390815085,
       28818.84397403893
      ],
      [
       14574.884973817116,
       28674.594190676875
      ]
     ]
    ]
   },
   "_ring": [
    [
     14574.884973817116,
     28674.594190676875
    ],
    [
     14487.203732949985,
     28634.996210930425
    ],
    [
     14555.085983943893,
     27718.58582251266
    ],
    [
     14843.585550668005,
     27735.556385261138
    ],
    [
     14803.987570921558,
     28335.18293570733
    ],
    [
     15134.913544516861,
     28352.15349845581
    ],
    [
     15098.143991895162,
     28847.128245286392
    ],
    [
     14597.512390815085,
     28818.84397403893
    ],
    [
     14574.884973817116,
     28674.594190676875
    ]
   ],
   "_area": 467787.9999999702,
   "_parentFid": null
  },
  {
   "type": "Feature",
   "properties": {
    "fid": "p1790692605418",
    "num": "14",
    "status": "draft",
    "chast": 1,
    "uezd": "rechitsa"
   },
   "geometry": {
    "type": "Polygon",
    "coordinates": [
     [
      [
       15035.227904736417,
       18570.356434463032
      ],
      [
       15803.807228278312,
       18603.99229107318
      ],
      [
       15786.989299973236,
       18965.577749632277
      ],
      [
       15011.682805109313,
       18921.851136039084
      ],
      [
       15035.227904736417,
       18570.356434463032
      ]
     ]
    ]
   },
   "_ring": [
    [
     15035.227904736417,
     18570.356434463032
    ],
    [
     15803.807228278312,
     18603.99229107318
    ],
    [
     15786.989299973236,
     18965.577749632277
    ],
    [
     15011.682805109313,
     18921.851136039084
    ],
    [
     15035.227904736417,
     18570.356434463032
    ]
   ],
   "_area": 276009.2325412631,
   "_parentFid": null
  },
  {
   "type": "Feature",
   "properties": {
    "fid": "p1790692623067",
    "num": "15",
    "status": "draft",
    "chast": 1,
    "uezd": "rechitsa"
   },
   "geometry": {
    "type": "Polygon",
    "coordinates": [
     [
      [
       15807.170813939327,
       18605.67408390369
      ],
      [
       16261.254878176333,
       18627.537390700287
      ],
      [
       16236.027985718722,
       18984.07747076786
      ],
      [
       15790.352885634253,
       18965.577749632277
      ],
      [
       15807.170813939327,
       18605.67408390369
      ]
     ]
    ]
   },
   "_ring": [
    [
     15807.170813939327,
     18605.67408390369
    ],
    [
     16261.254878176333,
     18627.537390700287
    ],
    [
     16236.027985718722,
     18984.07747076786
    ],
    [
     15790.352885634253,
     18965.577749632277
    ],
    [
     15807.170813939327,
     18605.67408390369
    ]
   ],
   "_area": 161580.97056895494,
   "_parentFid": null
  },
  {
   "type": "Feature",
   "properties": {
    "fid": "p1790692642217",
    "num": "13",
    "status": "draft",
    "chast": 1,
    "uezd": "rechitsa"
   },
   "geometry": {
    "type": "Polygon",
    "coordinates": [
     [
      [
       16440,
       18426
      ],
      [
       16854,
       18448
      ],
      [
       16840,
       18652
      ],
      [
       16424,
       18628
      ],
      [
       16440,
       18426
      ]
     ]
    ]
   },
   "_ring": [
    [
     16440,
     18426
    ],
    [
     16854,
     18448
    ],
    [
     16840,
     18652
    ],
    [
     16424,
     18628
    ],
    [
     16440,
     18426
    ]
   ],
   "_area": 84590,
   "_parentFid": null
  },
  {
   "type": "Feature",
   "properties": {
    "fid": "p1790692706068",
    "num": "64",
    "status": "draft",
    "chast": 5,
    "uezd": "rechitsa"
   },
   "geometry": {
    "type": "Polygon",
    "coordinates": [
     [
      [
       7749.890321804561,
       17191.180064207343
      ],
      [
       8145.870119269027,
       17227.949616829042
      ],
      [
       8389.1148519972,
       17058.24398934427
      ],
      [
       8522.050926860271,
       16803.685548117115
      ],
      [
       8570.134187980955,
       16297.397092787547
      ],
      [
       10029.60258434999,
       16393.563615028917
      ],
      [
       10292.646306951385,
       16501.043845769273
      ],
      [
       10207.793493209,
       17343.915128943638
      ],
      [
       10049.401574223213,
       17338.258274694144
      ],
      [
       9970.20561473032,
       17307.145576321935
      ],
      [
       10040.916292848975,
       16735.803297123206
      ],
      [
       9990.004604603542,
       16481.24485589605
      ],
      [
       9678.877620881462,
       16464.274293147573
      ],
      [
       9647.764922509254,
       16670.749473254044
      ],
      [
       9212.187145298341,
       16636.80834775709
      ],
      [
       9152.79017567867,
       17058.24398934427
      ],
      [
       9084.907924684761,
       16990.361738350362
      ],
      [
       8985.912975318646,
       17041.273426595795
      ],
      [
       8779.437795212174,
       17007.33230109884
      ],
      [
       8765.295659588443,
       17092.185114841224
      ],
      [
       8892.57488020202,
       17111.984104714447
      ],
      [
       8876,
       17264
      ],
      [
       8576,
       18116
      ],
      [
       8156,
       17884
      ],
      [
       8018.590898655449,
       17816.26245877625
      ],
      [
       7885.654823792377,
       17408.9689528128
      ],
      [
       7749.890321804561,
       17191.180064207343
      ]
     ]
    ]
   },
   "_ring": [
    [
     7749.890321804561,
     17191.180064207343
    ],
    [
     8145.870119269027,
     17227.949616829042
    ],
    [
     8389.1148519972,
     17058.24398934427
    ],
    [
     8522.050926860271,
     16803.685548117115
    ],
    [
     8570.134187980955,
     16297.397092787547
    ],
    [
     10029.60258434999,
     16393.563615028917
    ],
    [
     10292.646306951385,
     16501.043845769273
    ],
    [
     10207.793493209,
     17343.915128943638
    ],
    [
     10049.401574223213,
     17338.258274694144
    ],
    [
     9970.20561473032,
     17307.145576321935
    ],
    [
     10040.916292848975,
     16735.803297123206
    ],
    [
     9990.004604603542,
     16481.24485589605
    ],
    [
     9678.877620881462,
     16464.274293147573
    ],
    [
     9647.764922509254,
     16670.749473254044
    ],
    [
     9212.187145298341,
     16636.80834775709
    ],
    [
     9152.79017567867,
     17058.24398934427
    ],
    [
     9084.907924684761,
     16990.361738350362
    ],
    [
     8985.912975318646,
     17041.273426595795
    ],
    [
     8779.437795212174,
     17007.33230109884
    ],
    [
     8765.295659588443,
     17092.185114841224
    ],
    [
     8892.57488020202,
     17111.984104714447
    ],
    [
     8876,
     17264
    ],
    [
     8576,
     18116
    ],
    [
     8156,
     17884
    ],
    [
     8018.590898655449,
     17816.26245877625
    ],
    [
     7885.654823792377,
     17408.9689528128
    ],
    [
     7749.890321804561,
     17191.180064207343
    ]
   ],
   "_area": 1592883.400293626,
   "_parentFid": null
  },
  {
   "type": "Feature",
   "properties": {
    "fid": "p1790692804499",
    "num": "40",
    "status": "draft",
    "chast": 2,
    "uezd": "rechitsa"
   },
   "geometry": {
    "type": "Polygon",
    "coordinates": [
     [
      [
       12412.943866398404,
       23900.68459732469
      ],
      [
       13454.689299140788,
       23972.037024224854
      ],
      [
       13435.661985300743,
       24540.478025196153
      ],
      [
       13644.962437541222,
       25453.789089518243
      ],
      [
       12424.83593754843,
       25368.166177238047
      ],
      [
       12227.427556457978,
       24207.50003299539
      ],
      [
       12412.943866398404,
       23900.68459732469
      ]
     ]
    ]
   },
   "_ring": [
    [
     12412.943866398404,
     23900.68459732469
    ],
    [
     13454.689299140788,
     23972.037024224854
    ],
    [
     13435.661985300743,
     24540.478025196153
    ],
    [
     13644.962437541222,
     25453.789089518243
    ],
    [
     12424.83593754843,
     25368.166177238047
    ],
    [
     12227.427556457978,
     24207.50003299539
    ],
    [
     12412.943866398404,
     23900.68459732469
    ]
   ],
   "_area": 1729532.275094092,
   "_parentFid": null
  },
  {
   "type": "Feature",
   "properties": {
    "fid": "p1790692842164",
    "num": "49",
    "status": "draft",
    "chast": 5,
    "uezd": "rechitsa"
   },
   "geometry": {
    "type": "Polygon",
    "coordinates": [
     [
      [
       10880.959148898593,
       19864.043697092493
      ],
      [
       11474.928845095292,
       19929.097520961655
      ],
      [
       11469.2719908458,
       20432.557549166475
      ],
      [
       11138.346017250497,
       20412.758559293252
      ],
      [
       10929.042410019278,
       20675.80228189465
      ],
      [
       10912.071847270801,
       21283.91411371508
      ],
      [
       10651.856551794152,
       21264.115123841857
      ],
      [
       10663.170260293136,
       21060.46837086013
      ],
      [
       10880.959148898593,
       19864.043697092493
      ]
     ]
    ]
   },
   "_ring": [
    [
     10880.959148898593,
     19864.043697092493
    ],
    [
     11474.928845095292,
     19929.097520961655
    ],
    [
     11469.2719908458,
     20432.557549166475
    ],
    [
     11138.346017250497,
     20412.758559293252
    ],
    [
     10929.042410019278,
     20675.80228189465
    ],
    [
     10912.071847270801,
     21283.91411371508
    ],
    [
     10651.856551794152,
     21264.115123841857
    ],
    [
     10663.170260293136,
     21060.46837086013
    ],
    [
     10880.959148898593,
     19864.043697092493
    ]
   ],
   "_area": 550567.9999999851,
   "_parentFid": null
  },
  {
   "type": "Feature",
   "properties": {
    "fid": "p1790692870665",
    "num": "51",
    "status": "draft",
    "chast": 5,
    "uezd": "rechitsa"
   },
   "geometry": {
    "type": "Polygon",
    "coordinates": [
     [
      [
       12102.839666788946,
       19677.367506859242
      ],
      [
       12657.2113832392,
       19731.10762222942
      ],
      [
       12648.72610186496,
       20511.75350865937
      ],
      [
       11469.2719908458,
       20429.72912204173
      ],
      [
       11474.928845095292,
       19931.925948086402
      ],
      [
       12102.839666788946,
       19677.367506859242
      ]
     ]
    ]
   },
   "_ring": [
    [
     12102.839666788946,
     19677.367506859242
    ],
    [
     12657.2113832392,
     19731.10762222942
    ],
    [
     12648.72610186496,
     20511.75350865937
    ],
    [
     11469.2719908458,
     20429.72912204173
    ],
    [
     11474.928845095292,
     19931.925948086402
    ],
    [
     12102.839666788946,
     19677.367506859242
    ]
   ],
   "_area": 841851.9999999851,
   "_parentFid": null
  },
  {
   "type": "Feature",
   "properties": {
    "fid": "p1790692891132",
    "num": "50",
    "status": "draft",
    "chast": 5,
    "uezd": "rechitsa"
   },
   "geometry": {
    "type": "Polygon",
    "coordinates": [
     [
      [
       11127.032308751512,
       20421.243840667492
      ],
      [
       11460.786709471562,
       20441.042830540715
      ],
      [
       11455.129855222069,
       20721.057115890588
      ],
      [
       10920.55712864504,
       20684.28756326889
      ],
      [
       11127.032308751512,
       20421.243840667492
      ]
     ]
    ]
   },
   "_ring": [
    [
     11127.032308751512,
     20421.243840667492
    ],
    [
     11460.786709471562,
     20441.042830540715
    ],
    [
     11455.129855222069,
     20721.057115890588
    ],
    [
     10920.55712864504,
     20684.28756326889
    ],
    [
     11127.032308751512,
     20421.243840667492
    ]
   ],
   "_area": 120887.9999999851,
   "_parentFid": null
  },
  {
   "type": "Feature",
   "properties": {
    "fid": "p1790692923716",
    "num": "43",
    "status": "draft",
    "chast": 5,
    "uezd": "rechitsa"
   },
   "geometry": {
    "type": "Polygon",
    "coordinates": [
     [
      [
       11468,
       20444
      ],
      [
       12088,
       20480
      ],
      [
       12070,
       20944
      ],
      [
       11554,
       20908
      ],
      [
       11428,
       21166
      ],
      [
       11206,
       21314
      ],
      [
       10960,
       21534
      ],
      [
       10906,
       21472
      ],
      [
       10928,
       20688
      ],
      [
       11460,
       20718
      ],
      [
       11468,
       20444
      ]
     ]
    ]
   },
   "_ring": [
    [
     11468,
     20444
    ],
    [
     12088,
     20480
    ],
    [
     12070,
     20944
    ],
    [
     11554,
     20908
    ],
    [
     11428,
     21166
    ],
    [
     11206,
     21314
    ],
    [
     10960,
     21534
    ],
    [
     10906,
     21472
    ],
    [
     10928,
     20688
    ],
    [
     11460,
     20718
    ],
    [
     11468,
     20444
    ]
   ],
   "_area": 639196,
   "_parentFid": null
  },
  {
   "type": "Feature",
   "properties": {
    "fid": "p1790692971716",
    "num": "73",
    "status": "draft",
    "chast": 6,
    "uezd": "rechitsa"
   },
   "geometry": {
    "type": "Polygon",
    "coordinates": [
     [
      [
       7228.000844986539,
       14149.186254302376
      ],
      [
       8999.919446340593,
       14265.728551572643
      ],
      [
       8883.377149070328,
       14513.08363149321
      ],
      [
       8823.916793320192,
       14774.709196793807
      ],
      [
       8797.754236790131,
       15193.310101274765
      ],
      [
       7230.379259216545,
       15083.903046694515
      ],
      [
       7228.000844986539,
       14149.186254302376
      ]
     ]
    ]
   },
   "_ring": [
    [
     7228.000844986539,
     14149.186254302376
    ],
    [
     8999.919446340593,
     14265.728551572643
    ],
    [
     8883.377149070328,
     14513.08363149321
    ],
    [
     8823.916793320192,
     14774.709196793807
    ],
    [
     8797.754236790131,
     15193.310101274765
    ],
    [
     7230.379259216545,
     15083.903046694515
    ],
    [
     7228.000844986539,
     14149.186254302376
    ]
   ],
   "_area": 1527905.0190793872,
   "_parentFid": null
  },
  {
   "type": "Feature",
   "properties": {
    "fid": "p1790693020965",
    "num": "28",
    "status": "draft",
    "chast": 3,
    "uezd": "rechitsa"
   },
   "geometry": {
    "type": "Polygon",
    "coordinates": [
     [
      [
       11264.64837873876,
       25284.07341384869
      ],
      [
       13642.703441076264,
       25452.25269689943
      ],
      [
       13767.156110533815,
       25946.699789068618
      ],
      [
       11533.735231619949,
       25785.247677339903
      ],
      [
       11663.743383946688,
       26145.907630449827
      ],
      [
       11713.690082776802,
       26547.859635320747
      ],
      [
       11758.879953146907,
       26754.78167333122
      ],
      [
       11773.15043852694,
       26987.866267871752
      ],
      [
       11739.852639306862,
       27225.707690872296
      ],
      [
       10619.6195369743,
       26783.322644091284
      ],
      [
       10676.70147849443,
       26114.988245459757
      ],
      [
       11083.014753043957,
       26168.696442695596
      ],
      [
       11264.64837873876,
       25284.07341384869
      ]
     ]
    ]
   },
   "_ring": [
    [
     11264.64837873876,
     25284.07341384869
    ],
    [
     13642.703441076264,
     25452.25269689943
    ],
    [
     13767.156110533815,
     25946.699789068618
    ],
    [
     11533.735231619949,
     25785.247677339903
    ],
    [
     11663.743383946688,
     26145.907630449827
    ],
    [
     11713.690082776802,
     26547.859635320747
    ],
    [
     11758.879953146907,
     26754.78167333122
    ],
    [
     11773.15043852694,
     26987.866267871752
    ],
    [
     11739.852639306862,
     27225.707690872296
    ],
    [
     10619.6195369743,
     26783.322644091284
    ],
    [
     10676.70147849443,
     26114.988245459757
    ],
    [
     11083.014753043957,
     26168.696442695596
    ],
    [
     11264.64837873876,
     25284.07341384869
    ]
   ],
   "_area": 2314460.465729475,
   "_parentFid": null
  },
  {
   "type": "Feature",
   "properties": {
    "fid": "p1790693077365",
    "num": "20",
    "status": "draft",
    "chast": 2,
    "uezd": "rechitsa"
   },
   "geometry": {
    "type": "Polygon",
    "coordinates": [
     [
      [
       14692.1421673129,
       21358.76894744435
      ],
      [
       15839.124877718968,
       21419.313489342618
      ],
      [
       15751.671650532582,
       22448.570701613164
      ],
      [
       15950.123204532458,
       22472.115801240267
      ],
      [
       16313.390455922063,
       21957.487195104994
      ],
      [
       16851.56416168444,
       21449.58576029175
      ],
      [
       17598.280178429737,
       21496.67595954596
      ],
      [
       17463.736751989145,
       22478.8429725623
      ],
      [
       16562.295794837162,
       24779.53556469646
      ],
      [
       16768,
       24796
      ],
      [
       16728,
       25292
      ],
      [
       16504,
       25268
      ],
      [
       16508,
       25076
      ],
      [
       16180,
       25052
      ],
      [
       16120,
       25600
      ],
      [
       14792,
       25488
      ],
      [
       14716,
       26492
      ],
      [
       15604,
       26548
      ],
      [
       15512,
       27900
      ],
      [
       16100,
       27932
      ],
      [
       16112,
       27632
      ],
      [
       15988,
       27616
      ],
      [
       16016,
       26828
      ],
      [
       16576,
       26868
      ],
      [
       16656,
       27336
      ],
      [
       16436,
       28692
      ],
      [
       15936,
       29588
      ],
      [
       15060,
       29536
      ],
      [
       15132,
       28348
      ],
      [
       14800,
       28332
      ],
      [
       14840,
       27740
      ],
      [
       14552,
       27724
      ],
      [
       14476,
       28624
      ],
      [
       12972,
       27776
      ],
      [
       13096,
       25908
      ],
      [
       13772,
       25944
      ],
      [
       13540,
       24972
      ],
      [
       14052,
       25000
      ],
      [
       14068,
       24732
      ],
      [
       14468,
       24760
      ],
      [
       14548,
       23704
      ],
      [
       14617.733857613448,
       22766.181009612093
      ],
      [
       14303.78317925273,
       22742.39686731204
      ],
      [
       13823.34350479163,
       23132.45680103293
      ],
      [
       13813.829847871608,
       23337.0004248134
      ],
      [
       13599.77256717112,
       23327.486767893377
      ],
      [
       13595.613241822057,
       23434.101300290517
      ],
      [
       13977,
       23818
      ],
      [
       13957,
       24141
      ],
      [
       13757,
       24132
      ],
      [
       13735.202046754173,
       24443.176998594976
      ],
      [
       13434.161130093344,
       24535.675604272885
      ],
      [
       13464.433401042477,
       24007.59265549355
      ],
      [
       13766,
       24018
      ],
      [
       13783.97403883889,
       23804.095723002152
      ],
      [
       13390.43451650015,
       23780.55062337505
      ],
      [
       13376.980173856091,
       23958.820663408835
      ],
      [
       12408.267503483812,
       23901.639707171584
      ],
      [
       12357.81371856859,
       23561.917555409083
      ],
      [
       13171.65800577014,
       23627.166960874063
      ],
      [
       13200.198976530204,
       22932.670005712473
      ],
      [
       14061.184927792174,
       22428.44618895132
      ],
      [
       14260.971723112632,
       22461.743988171398
      ],
      [
       14313.29683617275,
       21767.247033009808
      ],
      [
       14665.233482024782,
       21779.21715507121
      ],
      [
       14692.1421673129,
       21358.76894744435
      ]
     ]
    ]
   },
   "_ring": [
    [
     14692.1421673129,
     21358.76894744435
    ],
    [
     15839.124877718968,
     21419.313489342618
    ],
    [
     15751.671650532582,
     22448.570701613164
    ],
    [
     15950.123204532458,
     22472.115801240267
    ],
    [
     16313.390455922063,
     21957.487195104994
    ],
    [
     16851.56416168444,
     21449.58576029175
    ],
    [
     17598.280178429737,
     21496.67595954596
    ],
    [
     17463.736751989145,
     22478.8429725623
    ],
    [
     16562.295794837162,
     24779.53556469646
    ],
    [
     16768,
     24796
    ],
    [
     16728,
     25292
    ],
    [
     16504,
     25268
    ],
    [
     16508,
     25076
    ],
    [
     16180,
     25052
    ],
    [
     16120,
     25600
    ],
    [
     14792,
     25488
    ],
    [
     14716,
     26492
    ],
    [
     15604,
     26548
    ],
    [
     15512,
     27900
    ],
    [
     16100,
     27932
    ],
    [
     16112,
     27632
    ],
    [
     15988,
     27616
    ],
    [
     16016,
     26828
    ],
    [
     16576,
     26868
    ],
    [
     16656,
     27336
    ],
    [
     16436,
     28692
    ],
    [
     15936,
     29588
    ],
    [
     15060,
     29536
    ],
    [
     15132,
     28348
    ],
    [
     14800,
     28332
    ],
    [
     14840,
     27740
    ],
    [
     14552,
     27724
    ],
    [
     14476,
     28624
    ],
    [
     12972,
     27776
    ],
    [
     13096,
     25908
    ],
    [
     13772,
     25944
    ],
    [
     13540,
     24972
    ],
    [
     14052,
     25000
    ],
    [
     14068,
     24732
    ],
    [
     14468,
     24760
    ],
    [
     14548,
     23704
    ],
    [
     14617.733857613448,
     22766.181009612093
    ],
    [
     14303.78317925273,
     22742.39686731204
    ],
    [
     13823.34350479163,
     23132.45680103293
    ],
    [
     13813.829847871608,
     23337.0004248134
    ],
    [
     13599.77256717112,
     23327.486767893377
    ],
    [
     13595.613241822057,
     23434.101300290517
    ],
    [
     13977,
     23818
    ],
    [
     13957,
     24141
    ],
    [
     13757,
     24132
    ],
    [
     13735.202046754173,
     24443.176998594976
    ],
    [
     13434.161130093344,
     24535.675604272885
    ],
    [
     13464.433401042477,
     24007.59265549355
    ],
    [
     13766,
     24018
    ],
    [
     13783.97403883889,
     23804.095723002152
    ],
    [
     13390.43451650015,
     23780.55062337505
    ],
    [
     13376.980173856091,
     23958.820663408835
    ],
    [
     12408.267503483812,
     23901.639707171584
    ],
    [
     12357.81371856859,
     23561.917555409083
    ],
    [
     13171.65800577014,
     23627.166960874063
    ],
    [
     13200.198976530204,
     22932.670005712473
    ],
    [
     14061.184927792174,
     22428.44618895132
    ],
    [
     14260.971723112632,
     22461.743988171398
    ],
    [
     14313.29683617275,
     21767.247033009808
    ],
    [
     14665.233482024782,
     21779.21715507121
    ],
    [
     14692.1421673129,
     21358.76894744435
    ]
   ],
   "_area": 20002801.242836386,
   "_parentFid": null
  },
  {
   "type": "Feature",
   "properties": {
    "fid": "p1790693305480",
    "num": "2",
    "status": "draft",
    "chast": 1,
    "uezd": "rechitsa"
   },
   "geometry": {
    "type": "Polygon",
    "coordinates": [
     [
      [
       17079.457192779868,
       17334.015634007024
      ],
      [
       17288.760800011085,
       16850.354595675428
      ],
      [
       17342.500915381264,
       16963.491680665273
      ],
      [
       17638.07154991724,
       17160.067365835133
      ],
      [
       17635.243122792494,
       17263.30495588837
      ],
      [
       17650.799471978597,
       17318.45928482092
      ],
      [
       17570.18929892333,
       17372.199400191097
      ],
      [
       17529.17710561451,
       17483.922271618572
      ],
      [
       17359.47147812974,
       17495.23598011756
      ],
      [
       17348.157769630754,
       17437.25322406026
      ],
      [
       16957.834826415783,
       17427.35372912365
      ],
      [
       16926.722128043573,
       17749.794421344715
      ],
      [
       16653.778910505567,
       17732.82385859624
      ],
      [
       16669.33525969167,
       17338.258274694144
      ],
      [
       16805.09976167949,
       17322.70192550804
      ],
      [
       17079.457192779868,
       17334.015634007024
      ]
     ]
    ]
   },
   "_ring": [
    [
     17079.457192779868,
     17334.015634007024
    ],
    [
     17288.760800011085,
     16850.354595675428
    ],
    [
     17342.500915381264,
     16963.491680665273
    ],
    [
     17638.07154991724,
     17160.067365835133
    ],
    [
     17635.243122792494,
     17263.30495588837
    ],
    [
     17650.799471978597,
     17318.45928482092
    ],
    [
     17570.18929892333,
     17372.199400191097
    ],
    [
     17529.17710561451,
     17483.922271618572
    ],
    [
     17359.47147812974,
     17495.23598011756
    ],
    [
     17348.157769630754,
     17437.25322406026
    ],
    [
     16957.834826415783,
     17427.35372912365
    ],
    [
     16926.722128043573,
     17749.794421344715
    ],
    [
     16653.778910505567,
     17732.82385859624
    ],
    [
     16669.33525969167,
     17338.258274694144
    ],
    [
     16805.09976167949,
     17322.70192550804
    ],
    [
     17079.457192779868,
     17334.015634007024
    ]
   ],
   "_area": 343372.0000000596,
   "_parentFid": null
  },
  {
   "type": "Feature",
   "properties": {
    "fid": "p1790693348097",
    "num": "4",
    "status": "draft",
    "chast": 1,
    "uezd": "rechitsa"
   },
   "geometry": {
    "type": "Polygon",
    "coordinates": [
     [
      [
       16959.198902836917,
       17430.100895378997
      ],
      [
       17124.014600226645,
       17430.100895378997
      ],
      [
       17098.787707769032,
       17759.732290158452
      ],
      [
       16932.290217548798,
       17746.27794751439
      ],
      [
       16959.198902836917,
       17430.100895378997
      ]
     ]
    ]
   },
   "_ring": [
    [
     16959.198902836917,
     17430.100895378997
    ],
    [
     17124.014600226645,
     17430.100895378997
    ],
    [
     17098.787707769032,
     17759.732290158452
    ],
    [
     16932.290217548798,
     17746.27794751439
    ],
    [
     16959.198902836917,
     17430.100895378997
    ]
   ],
   "_area": 53666.57626494765,
   "_parentFid": null
  },
  {
   "type": "Feature",
   "properties": {
    "fid": "p1790693361415",
    "num": "3",
    "status": "draft",
    "chast": 1,
    "uezd": "rechitsa"
   },
   "geometry": {
    "type": "Polygon",
    "coordinates": [
     [
      [
       17129.059978718167,
       17435.14627387052
      ],
      [
       17344.329461023117,
       17441.87344519255
      ],
      [
       17357.783803667175,
       17495.690815768787
      ],
      [
       17319.102568565504,
       17505.78157275183
      ],
      [
       17293.875676107895,
       17536.053843700964
      ],
      [
       17124.014600226645,
       17527.644879548425
      ],
      [
       17129.059978718167,
       17435.14627387052
      ]
     ]
    ]
   },
   "_ring": [
    [
     17129.059978718167,
     17435.14627387052
    ],
    [
     17344.329461023117,
     17441.87344519255
    ],
    [
     17357.783803667175,
     17495.690815768787
    ],
    [
     17319.102568565504,
     17505.78157275183
    ],
    [
     17293.875676107895,
     17536.053843700964
    ],
    [
     17124.014600226645,
     17527.644879548425
    ],
    [
     17129.059978718167,
     17435.14627387052
    ]
   ],
   "_area": 19716.965486586094,
   "_parentFid": null
  },
  {
   "type": "Feature",
   "properties": {
    "fid": "p1790693379497",
    "num": "6",
    "status": "draft",
    "chast": 1,
    "uezd": "rechitsa"
   },
   "geometry": {
    "type": "Polygon",
    "coordinates": [
     [
      [
       16094.757387956097,
       17700.86954109069
      ],
      [
       16360.48065517627,
       17716.00567656526
      ],
      [
       16335.25376271866,
       17959.865636988834
      ],
      [
       16077.939459651023,
       17954.820258497315
      ],
      [
       16094.757387956097,
       17700.86954109069
      ]
     ]
    ]
   },
   "_ring": [
    [
     16094.757387956097,
     17700.86954109069
    ],
    [
     16360.48065517627,
     17716.00567656526
    ],
    [
     16335.25376271866,
     17959.865636988834
    ],
    [
     16077.939459651023,
     17954.820258497315
    ],
    [
     16094.757387956097,
     17700.86954109069
    ]
   ],
   "_area": 65305.55388331413,
   "_parentFid": null
  },
  {
   "type": "Feature",
   "properties": {
    "fid": "p1790693401864",
    "num": "5",
    "status": "draft",
    "chast": 1,
    "uezd": "rechitsa"
   },
   "geometry": {
    "type": "Polygon",
    "coordinates": [
     [
      [
       15901.417295323079,
       15584.633457351507
      ],
      [
       16209.715851920415,
       15290.477036377903
      ],
      [
       16424.676313401123,
       15304.619172001634
      ],
      [
       16356.794062407216,
       15663.829416844399
      ],
      [
       16464.274293147573,
       15822.221335830187
      ],
      [
       16619.83778500861,
       15856.162461327142
      ],
      [
       16766.915995495412,
       15952.328983568512
      ],
      [
       17027.131290972062,
       15878.78987832511
      ],
      [
       17194.00849133209,
       16045.667078685135
      ],
      [
       17290.17501357346,
       16325.681364035008
      ],
      [
       17394.826817189067,
       16551.9555340147
      ],
      [
       17372.199400191097,
       16639.636774881834
      ],
      [
       17080.87140634224,
       17335.429847569398
      ],
      [
       16769.74442262016,
       17326.944566195158
      ],
      [
       16659.435764755057,
       17346.743556068384
      ],
      [
       16650.95048338082,
       17737.066499283355
      ],
      [
       16088.093485556328,
       17708.782228035896
      ],
      [
       16073.951349932597,
       17957.68381501356
      ],
      [
       15802.422345956962,
       17946.370106514576
      ],
      [
       15901.417295323079,
       15584.633457351507
      ]
     ]
    ]
   },
   "_ring": [
    [
     15901.417295323079,
     15584.633457351507
    ],
    [
     16209.715851920415,
     15290.477036377903
    ],
    [
     16424.676313401123,
     15304.619172001634
    ],
    [
     16356.794062407216,
     15663.829416844399
    ],
    [
     16464.274293147573,
     15822.221335830187
    ],
    [
     16619.83778500861,
     15856.162461327142
    ],
    [
     16766.915995495412,
     15952.328983568512
    ],
    [
     17027.131290972062,
     15878.78987832511
    ],
    [
     17194.00849133209,
     16045.667078685135
    ],
    [
     17290.17501357346,
     16325.681364035008
    ],
    [
     17394.826817189067,
     16551.9555340147
    ],
    [
     17372.199400191097,
     16639.636774881834
    ],
    [
     17080.87140634224,
     17335.429847569398
    ],
    [
     16769.74442262016,
     17326.944566195158
    ],
    [
     16659.435764755057,
     17346.743556068384
    ],
    [
     16650.95048338082,
     17737.066499283355
    ],
    [
     16088.093485556328,
     17708.782228035896
    ],
    [
     16073.951349932597,
     17957.68381501356
    ],
    [
     15802.422345956962,
     17946.370106514576
    ],
    [
     15901.417295323079,
     15584.633457351507
    ]
   ],
   "_area": 2646436.00000003,
   "_parentFid": null
  }
 ]
}