{
 "type": "FeatureCollection",
 "features": [
  {
   "type": "Feature",
   "properties": {
    "fid": "mz3-33",
    "num": "33",
    "status": "draft",
    "owner_id": "dubrowski_andrzej",
    "owner_ids": [
     "dubrowski_andrzej",
     "potocki_stanislaw",
     "trzypolski_franciszek",
     "trzypolska_magdalena"
    ],
    "chast": 3,
    "uezd": "mozyr"
   },
   "geometry": {
    "type": "Polygon",
    "coordinates": [
     [
      [
       25493,
       22873
      ],
      [
       26446,
       22924
      ],
      [
       26429,
       23299
      ],
      [
       26253,
       23293
      ],
      [
       26039,
       23336
      ],
      [
       25903,
       23387
      ],
      [
       25744,
       23409
      ],
      [
       25584,
       23431
      ],
      [
       25462,
       23412
      ],
      [
       25493,
       22873
      ]
     ]
    ]
   }
  },
  {
   "type": "Feature",
   "properties": {
    "fid": "mz3-32",
    "num": "32",
    "status": "draft",
    "owner_id": "tretiak_ludwik",
    "owner_ids": [
     "tretiak_ludwik",
     "tretiak_stanislaw"
    ],
    "chast": 3,
    "uezd": "mozyr"
   },
   "geometry": {
    "type": "Polygon",
    "coordinates": [
     [
      [
       26446,
       22924
      ],
      [
       27515,
       22977
      ],
      [
       27477,
       23398
      ],
      [
       27287,
       23404
      ],
      [
       27194,
       23420
      ],
      [
       27022,
       23434
      ],
      [
       26806,
       23437
      ],
      [
       26790,
       23403
      ],
      [
       26638,
       23354
      ],
      [
       26511,
       23321
      ],
      [
       26429,
       23299
      ],
      [
       26446,
       22924
      ]
     ]
    ]
   }
  },
  {
   "type": "Feature",
   "properties": {
    "fid": "mz7-76",
    "num": "76",
    "status": "draft",
    "owner_id": "radziwill_dominik",
    "chast": 7,
    "uezd": "mozyr"
   },
   "geometry": {
    "type": "Polygon",
    "coordinates": [
     [
      [
       13796,
       7161
      ],
      [
       14406,
       8258
      ],
      [
       14371,
       8751
      ],
      [
       15158,
       8759
      ],
      [
       16136,
       9638
      ],
      [
       16127,
       10151
      ],
      [
       15128,
       10191
      ],
      [
       15276,
       10228
      ],
      [
       15182,
       11358
      ],
      [
       14747,
       11346
      ],
      [
       14648,
       12273
      ],
      [
       14864,
       12296
      ],
      [
       14769,
       13661
      ],
      [
       14223,
       13435
      ],
      [
       13920,
       13134
      ],
      [
       13374,
       12909
      ],
      [
       12998,
       12819
      ],
      [
       13429,
       11138
      ],
      [
       13601,
       10469
      ],
      [
       13605,
       10430
      ],
      [
       13223,
       10032
      ],
      [
       12513,
       9353
      ],
      [
       13796,
       7161
      ]
     ]
    ]
   }
  },
  {
   "type": "Feature",
   "properties": {
    "fid": "mz5-59",
    "num": "59",
    "status": "draft",
    "owner_id": "radziwill_jozef",
    "chast": 5,
    "uezd": "mozyr"
   },
   "geometry": {
    "type": "Polygon",
    "coordinates": [
     [
      [
       12998,
       12819
      ],
      [
       13374,
       12909
      ],
      [
       13920,
       13134
      ],
      [
       14223,
       13435
      ],
      [
       14769,
       13661
      ],
      [
       15214,
       13574
      ],
      [
       15721,
       13527
      ],
      [
       16211,
       13647
      ],
      [
       16567,
       13740
      ],
      [
       16450,
       14839
      ],
      [
       15732,
       14762
      ],
      [
       15653,
       15502
      ],
      [
       14575,
       15387
      ],
      [
       14402,
       19215
      ],
      [
       14429,
       19206
      ],
      [
       16191,
       19852
      ],
      [
       16060,
       20419
      ],
      [
       15803,
       20849
      ],
      [
       15352,
       21118
      ],
      [
       14978,
       21324
      ],
      [
       14736,
       21615
      ],
      [
       14482,
       22011
      ],
      [
       14190,
       22437
      ],
      [
       13948,
       22728
      ],
      [
       13891,
       22774
      ],
      [
       13021,
       21186
      ],
      [
       13377,
       20995
      ],
      [
       13038,
       20536
      ],
      [
       12636,
       20512
      ],
      [
       11995,
       19756
      ],
      [
       12463,
       19332
      ],
      [
       12349,
       18580
      ],
      [
       12369,
       17439
      ],
      [
       13527,
       17198
      ],
      [
       13555,
       16540
      ],
      [
       13512,
       15937
      ],
      [
       13821,
       15242
      ],
      [
       13087,
       13113
      ],
      [
       12998,
       12819
      ]
     ]
    ]
   }
  },
  {
   "type": "Feature",
   "properties": {
    "fid": "mz6-66",
    "num": "66",
    "status": "draft",
    "owner_id": "radziwill_dominik",
    "chast": 6,
    "uezd": "mozyr",
    "owner_ids": [
     "radziwill_dominik",
     "radziwill_jozef"
    ]
   },
   "geometry": {
    "type": "Polygon",
    "coordinates": [
     [
      [
       16567,
       13740
      ],
      [
       17186,
       13751
      ],
      [
       17063,
       14904
      ],
      [
       16450,
       14839
      ],
      [
       16567,
       13740
      ]
     ]
    ]
   }
  },
  {
   "type": "Feature",
   "properties": {
    "fid": "mz5-70",
    "num": "70",
    "status": "draft",
    "owner_id": "radziwill_jozef",
    "chast": 5,
    "uezd": "mozyr"
   },
   "geometry": {
    "type": "Polygon",
    "coordinates": [
     [
      [
       18368,
       16689
      ],
      [
       18727,
       16727
      ],
      [
       18669,
       17277
      ],
      [
       18310,
       17238
      ],
      [
       18368,
       16689
      ]
     ]
    ]
   }
  },
  {
   "type": "Feature",
   "properties": {
    "fid": "mz6-72",
    "num": "72",
    "status": "draft",
    "owner_id": "radziwill_dominik",
    "chast": 6,
    "uezd": "mozyr"
   },
   "geometry": {
    "type": "Polygon",
    "coordinates": [
     [
      [
       13796,
       7161
      ],
      [
       13908,
       6092
      ],
      [
       14983,
       6196
      ],
      [
       15309,
       6813
      ],
      [
       15527,
       7282
      ],
      [
       16436,
       9034
      ],
      [
       17273,
       9033
      ],
      [
       17063,
       11005
      ],
      [
       18157,
       11122
      ],
      [
       18285,
       9926
      ],
      [
       19975,
       10106
      ],
      [
       19956,
       10285
      ],
      [
       21498,
       10439
      ],
      [
       21617,
       9325
      ],
      [
       23016,
       9444
      ],
      [
       24803,
       10099
      ],
      [
       25331,
       10083
      ],
      [
       25139,
       11883
      ],
      [
       24971,
       12592
      ],
      [
       23318,
       12416
      ],
      [
       23440,
       12151
      ],
      [
       23515,
       11725
      ],
      [
       23328,
       11458
      ],
      [
       23083,
       11432
      ],
      [
       23108,
       10615
      ],
      [
       22633,
       10564
      ],
      [
       22603,
       11288
      ],
      [
       21645,
       11278
      ],
      [
       21372,
       11620
      ],
      [
       21188,
       13353
      ],
      [
       19247,
       13166
      ],
      [
       18560,
       13947
      ],
      [
       18013,
       13889
      ],
      [
       17895,
       14993
      ],
      [
       17083,
       14906
      ],
      [
       17188,
       13919
      ],
      [
       16698,
       13799
      ],
      [
       16211,
       13647
      ],
      [
       15721,
       13527
      ],
      [
       15214,
       13574
      ],
      [
       14769,
       13661
      ],
      [
       14864,
       12296
      ],
      [
       14648,
       12273
      ],
      [
       14747,
       11346
      ],
      [
       15182,
       11358
      ],
      [
       15276,
       10228
      ],
      [
       15128,
       10191
      ],
      [
       16127,
       10151
      ],
      [
       16136,
       9638
      ],
      [
       15158,
       8759
      ],
      [
       14371,
       8751
      ],
      [
       14406,
       8258
      ],
      [
       13796,
       7161
      ]
     ]
    ]
   }
  },
  {
   "type": "Feature",
   "properties": {
    "fid": "mz-57",
    "num": "57",
    "status": "draft",
    "owner_id": "sollohub_jan",
    "chast": 5,
    "uezd": "mozyr"
   },
   "geometry": {
    "type": "Polygon",
    "coordinates": [
     [
      [
       17265,
       17832
      ],
      [
       17289,
       16251
      ],
      [
       14724,
       16113
      ],
      [
       14402,
       19215
      ],
      [
       16191,
       19852
      ],
      [
       16853,
       19915
      ],
      [
       16748,
       20900
      ],
      [
       16121,
       20833
      ],
      [
       15803,
       20849
      ],
      [
       14978,
       21324
      ],
      [
       14736,
       21615
      ],
      [
       14190,
       22437
      ],
      [
       13891,
       22774
      ],
      [
       15453,
       22436
      ],
      [
       16763,
       22033
      ],
      [
       19181,
       22064
      ],
      [
       19553,
       21968
      ],
      [
       19932,
       19474
      ],
      [
       20605,
       19294
      ],
      [
       21139,
       18999
      ],
      [
       21291,
       18513
      ],
      [
       21472,
       18230
      ],
      [
       21713,
       17954
      ],
      [
       22254,
       18008
      ],
      [
       22599,
       16902
      ],
      [
       22903,
       16150
      ],
      [
       22373,
       16104
      ],
      [
       21697,
       15841
      ],
      [
       21300,
       15597
      ],
      [
       20720,
       15384
      ],
      [
       20222,
       15144
      ],
      [
       19757,
       14980
      ],
      [
       19354,
       14987
      ],
      [
       18891,
       15089
      ],
      [
       18809,
       15855
      ],
      [
       19197,
       15896
      ],
      [
       19142,
       16976
      ],
      [
       19666,
       16781
      ],
      [
       19754,
       17936
      ],
      [
       17265,
       17832
      ]
     ]
    ]
   }
  }
 ]
}