{
 "type": "FeatureCollection",
 "features": [
  {
   "type": "Feature",
   "properties": {
    "fid": "p1787142664946",
    "num": "12",
    "status": "draft",
    "owner_id": "klasztor_rechitsa"
   },
   "geometry": {
    "type": "Polygon",
    "coordinates": [
     [
      [
       16452.960584648587,
       18082.13460850239
      ],
      [
       17219.464335454802,
       18116.075733999347
      ],
      [
       17420.282661311783,
       17793.63504177828
      ],
      [
       17468.36592243247,
       17901.115272518637
      ],
      [
       17536.24817342638,
       17923.742689516606
      ],
      [
       17589.988288796554,
       17988.79651338577
      ],
      [
       17476.85120380671,
       18478.11440596686
      ],
      [
       16435.99002190011,
       18418.71743634719
      ],
      [
       16452.960584648587,
       18082.13460850239
      ]
     ]
    ]
   },
   "_ring": [
    [
     16452.960584648587,
     18082.13460850239
    ],
    [
     17219.464335454802,
     18116.075733999347
    ],
    [
     17420.282661311783,
     17793.63504177828
    ],
    [
     17468.36592243247,
     17901.115272518637
    ],
    [
     17536.24817342638,
     17923.742689516606
    ],
    [
     17589.988288796554,
     17988.79651338577
    ],
    [
     17476.85120380671,
     18478.11440596686
    ],
    [
     16435.99002190011,
     18418.71743634719
    ],
    [
     16452.960584648587,
     18082.13460850239
    ]
   ],
   "_area": 437636.0000000298,
   "_parentFid": null
  },
  {
   "type": "Feature",
   "properties": {
    "fid": "p1787142781510",
    "num": "27",
    "status": "draft"
   },
   "geometry": {
    "type": "Polygon",
    "coordinates": [
     [
      [
       13721,
       24707
      ],
      [
       14063,
       24724
      ],
      [
       14047,
       25002
      ],
      [
       13705,
       24981
      ],
      [
       13721,
       24707
      ]
     ]
    ]
   },
   "_ring": [
    [
     13721,
     24707
    ],
    [
     14063,
     24724
    ],
    [
     14047,
     25002
    ],
    [
     13705,
     24981
    ],
    [
     13721,
     24707
    ]
   ],
   "_area": 94696,
   "_parentFid": null
  },
  {
   "type": "Feature",
   "properties": {
    "fid": "p1787142824215",
    "num": "47",
    "status": "draft",
    "owner_id": "stocki_adam"
   },
   "geometry": {
    "type": "Polygon",
    "coordinates": [
     [
      [
       10692.838816366235,
       18499.72113558172
      ],
      [
       11890.275311687525,
       18587.174362768106
      ],
      [
       11947.456267924777,
       18671.26400429348
      ],
      [
       11167.104394569329,
       19616.431575038652
      ],
      [
       10531.386704637522,
       19586.15930408952
      ],
      [
       10503,
       20954
      ],
      [
       10498,
       21166
      ],
      [
       10155,
       21118
      ],
      [
       10114,
       20922
      ],
      [
       9877,
       20651
      ],
      [
       10049,
       20665
      ],
      [
       10070.575469078485,
       19939.33579849608
      ],
      [
       10396.843278196928,
       19202.710538733827
      ],
      [
       10672.657302400145,
       19212.801295716872
      ],
      [
       10692.838816366235,
       18499.72113558172
      ]
     ]
    ]
   },
   "_ring": [
    [
     10692.838816366235,
     18499.72113558172
    ],
    [
     11890.275311687525,
     18587.174362768106
    ],
    [
     11947.456267924777,
     18671.26400429348
    ],
    [
     11167.104394569329,
     19616.431575038652
    ],
    [
     10531.386704637522,
     19586.15930408952
    ],
    [
     10503,
     20954
    ],
    [
     10498,
     21166
    ],
    [
     10155,
     21118
    ],
    [
     10114,
     20922
    ],
    [
     9877,
     20651
    ],
    [
     10049,
     20665
    ],
    [
     10070.575469078485,
     19939.33579849608
    ],
    [
     10396.843278196928,
     19202.710538733827
    ],
    [
     10672.657302400145,
     19212.801295716872
    ],
    [
     10692.838816366235,
     18499.72113558172
    ]
   ],
   "_area": 1795701.353974849,
   "_parentFid": null
  },
  {
   "type": "Feature",
   "properties": {
    "fid": "p1787142989968",
    "num": "61",
    "status": "draft"
   },
   "geometry": {
    "type": "Polygon",
    "coordinates": [
     [
      [
       10405.252242349465,
       14539.099019736725
      ],
      [
       10635.657860128982,
       14423.055314431713
      ],
      [
       10972.016426230468,
       14164.059218533568
      ],
      [
       10933.335191128797,
       14838.458143567048
      ],
      [
       10396.843278196928,
       14804.822286956898
      ],
      [
       10405.252242349465,
       14539.099019736725
      ]
     ]
    ]
   },
   "_ring": [
    [
     10405.252242349465,
     14539.099019736725
    ],
    [
     10635.657860128982,
     14423.055314431713
    ],
    [
     10972.016426230468,
     14164.059218533568
    ],
    [
     10933.335191128797,
     14838.458143567048
    ],
    [
     10396.843278196928,
     14804.822286956898
    ],
    [
     10405.252242349465,
     14539.099019736725
    ]
   ],
   "_area": 244958.75956577063,
   "_parentFid": null
  },
  {
   "type": "Feature",
   "properties": {
    "fid": "p1787143072255",
    "num": "54",
    "status": "draft"
   },
   "geometry": {
    "type": "Polygon",
    "coordinates": [
     [
      [
       12917.426678715849,
       18166.987422244776
      ],
      [
       13442.099910356268,
       18198.100120616986
      ],
      [
       13451.99940529288,
       18749.64340994249
      ],
      [
       12890.55662103076,
       18714.288070883165
      ],
      [
       12917.426678715849,
       18166.987422244776
      ]
     ]
    ]
   },
   "_ring": [
    [
     12917.426678715849,
     18166.987422244776
    ],
    [
     13442.099910356268,
     18198.100120616986
    ],
    [
     13451.99940529288,
     18749.64340994249
    ],
    [
     12890.55662103076,
     18714.288070883165
    ],
    [
     12917.426678715849,
     18166.987422244776
    ]
   ],
   "_area": 298650.0000000149,
   "_parentFid": null
  },
  {
   "type": "Feature",
   "properties": {
    "fid": "p1787143102887",
    "num": "66",
    "status": "draft"
   },
   "geometry": {
    "type": "Polygon",
    "coordinates": [
     [
      [
       9780.03931378238,
       15440.66518119533
      ],
      [
       10151.071933663228,
       15466.82773772539
      ],
      [
       10143.93669097321,
       15871.158156826315
      ],
      [
       9753.87675725232,
       15837.86035760624
      ],
      [
       9780.03931378238,
       15440.66518119533
      ]
     ]
    ]
   },
   "_ring": [
    [
     9780.03931378238,
     15440.66518119533
    ],
    [
     10151.071933663228,
     15466.82773772539
    ],
    [
     10143.93669097321,
     15871.158156826315
    ],
    [
     9753.87675725232,
     15837.86035760624
    ],
    [
     9780.03931378238,
     15440.66518119533
    ]
   ],
   "_area": 153003.7653131485,
   "_parentFid": null
  }
 ]
}