{
 "type": "FeatureCollection",
 "features": [
  {
   "type": "Feature",
   "properties": {
    "fid": "pn3-21",
    "num": "21",
    "status": "draft",
    "owner_id": "szolomicki_hilary",
    "chast": 3
   },
   "geometry": {
    "type": "Polygon",
    "coordinates": [
     [
      [
       9996,
       12752
      ],
      [
       10069,
       12764
      ],
      [
       10161,
       12661
      ],
      [
       10239,
       12668
      ],
      [
       10310,
       12679
      ],
      [
       10367,
       12754
      ],
      [
       10338,
       12896
      ],
      [
       9977,
       12933
      ],
      [
       9996,
       12752
      ]
     ]
    ]
   }
  },
  {
   "type": "Feature",
   "properties": {
    "fid": "pn3-68",
    "num": "68",
    "status": "draft",
    "owner_id": "szolomicki_fedor",
    "chast": 3
   },
   "geometry": {
    "type": "Polygon",
    "coordinates": [
     [
      [
       10079,
       12922
      ],
      [
       10338,
       12896
      ],
      [
       10367,
       12754
      ],
      [
       10565,
       12779
      ],
      [
       10594,
       12857
      ],
      [
       10729,
       12906
      ],
      [
       10871,
       12864
      ],
      [
       10977,
       12963
      ],
      [
       11090,
       13077
      ],
      [
       11154,
       13113
      ],
      [
       11147,
       13162
      ],
      [
       11048,
       13219
      ],
      [
       10906,
       13141
      ],
      [
       10764,
       13091
      ],
      [
       10622,
       13077
      ],
      [
       10551,
       13084
      ],
      [
       10480,
       13140
      ],
      [
       10444,
       13204
      ],
      [
       10357,
       13228
      ],
      [
       10228,
       13098
      ],
      [
       10079,
       12922
      ]
     ]
    ]
   }
  },
  {
   "type": "Feature",
   "properties": {
    "fid": "pn1-127",
    "num": "127",
    "status": "draft",
    "owner_id": "wegrzecki_ivan",
    "owner_ids": [
     "wegrzecki_ivan",
     "skirmunt_semen",
     "wiszniewski_tomasz",
     "strowinski",
     "niewinski_leon",
     "pinsk_okolichna"
    ],
    "chast": 1
   },
   "geometry": {
    "type": "Polygon",
    "coordinates": [
     [
      [
       4811,
       9656
      ],
      [
       5457,
       9124
      ],
      [
       6095,
       8560
      ],
      [
       6438,
       8167
      ],
      [
       5961,
       7650
      ],
      [
       6232,
       7535
      ],
      [
       6361,
       7496
      ],
      [
       6670,
       8167
      ],
      [
       6567,
       8490
      ],
      [
       6451,
       8786
      ],
      [
       6373,
       8980
      ],
      [
       6347,
       9173
      ],
      [
       6308,
       9431
      ],
      [
       6270,
       9612
      ],
      [
       6182,
       9818
      ],
      [
       6020,
       9794
      ],
      [
       5715,
       9697
      ],
      [
       4811,
       9656
      ]
     ]
    ]
   }
  },
  {
   "type": "Feature",
   "properties": {
    "fid": "p1790929289697",
    "num": "3",
    "status": "draft",
    "chast": 1,
    "owner_id": "oginski_michal"
   },
   "geometry": {
    "type": "Polygon",
    "coordinates": [
     [
      [
       7370.881087088571,
       11337.750129545102
      ],
      [
       7646.652731751325,
       11334.921702420355
      ],
      [
       7789.488301551007,
       11517.355251966485
      ],
      [
       7871.5126881686465,
       11528.66896046547
      ],
      [
       8022.833539342568,
       11620.592842019722
      ],
      [
       8034.147247841553,
       11677.161384514646
      ],
      [
       7865.855833919154,
       11633.32076408108
      ],
      [
       7867.270047481527,
       11708.274082886854
      ],
      [
       7400.579571898405,
       11777.570547443134
      ],
      [
       7366.638446401452,
       11672.918743827526
      ],
      [
       7213.903381665157,
       11602.208065708872
      ],
      [
       7114.908432299041,
       11349.063838044087
      ],
      [
       7370.881087088571,
       11337.750129545102
      ]
     ]
    ]
   }
  },
  {
   "type": "Feature",
   "properties": {
    "fid": "p1790929328530",
    "num": "1",
    "status": "draft",
    "chast": 1,
    "owner_id": "pinsk_gorod"
   },
   "geometry": {
    "type": "Polygon",
    "coordinates": [
     [
      [
       7402,
       12102
      ],
      [
       7524,
       12102
      ],
      [
       7523,
       12175
      ],
      [
       7401,
       12175
      ],
      [
       7384,
       12140
      ],
      [
       7402,
       12102
      ]
     ]
    ]
   }
  },
  {
   "type": "Feature",
   "properties": {
    "fid": "p1790929412544",
    "num": "f",
    "status": "draft",
    "chast": 1,
    "owner_id": "poniatowski_stanislaw"
   },
   "geometry": {
    "type": "Polygon",
    "coordinates": [
     [
      [
       7858.280615937982,
       11969.369612502389
      ],
      [
       7810.7123313378725,
       11730.338982386842
      ],
      [
       7872.551101318014,
       11712.5008756618
      ],
      [
       7865.415858627997,
       11644.716070106646
      ],
      [
       7897.524450733071,
       11651.851312796662
      ],
      [
       7905.84890053809,
       11719.636118351817
      ],
      [
       7879.686344008031,
       11719.636118351817
      ],
      [
       7903.470486308084,
       11780.285681216956
      ],
      [
       7927.254628608139,
       11836.178415622084
      ],
      [
       7902.271833150261,
       11842.270817921704
      ],
      [
       7899.443406025515,
       11821.057614486108
      ],
      [
       7853.481465248389,
       11830.250002641533
      ],
      [
       7865.148727137967,
       11890.707632432983
      ],
      [
       7877.307929778025,
       11895.63877137222
      ],
      [
       7888.0107938130495,
       11924.179742132284
      ],
      [
       7922.497800148128,
       11921.80132790228
      ],
      [
       7933.200664183152,
       11969.369612502389
      ],
      [
       7966.498463403229,
       11987.207719227428
      ],
      [
       7911.794936113104,
       12005.04582595247
      ],
      [
       7858.280615937982,
       11969.369612502389
      ]
     ]
    ]
   }
  },
  {
   "type": "Feature",
   "properties": {
    "fid": "p1790929664679",
    "num": "10",
    "status": "draft",
    "chast": 1,
    "owner_id": "repnin"
   },
   "geometry": {
    "type": "Polygon",
    "coordinates": [
     [
      [
       7400.579571898405,
       10681.555036603986
      ],
      [
       7759.789816741172,
       10733.88093841179
      ],
      [
       7782.417233739142,
       11224.613044555255
      ],
      [
       7971.921851097136,
       11206.228268244404
      ],
      [
       7978.992918909002,
       11344.821197356967
      ],
      [
       8015.762471530702,
       11558.367445275306
      ],
      [
       8068.088373338507,
       11648.877113267183
      ],
      [
       8035.561461403926,
       11660.190821766168
      ],
      [
       8024.247752904941,
       11622.007055582095
      ],
      [
       7872.92690173102,
       11532.91160115259
      ],
      [
       7783.831447301514,
       11520.183679091231
      ],
      [
       7650.895372438444,
       11336.335915982729
      ],
      [
       7225.217090164142,
       11343.406983794595
      ],
      [
       7295.927768282797,
       11146.831298624735
      ],
      [
       7377.952154900437,
       11145.417085062361
      ],
      [
       7400.579571898405,
       10681.555036603986
      ]
     ]
    ]
   }
  },
  {
   "type": "Feature",
   "properties": {
    "fid": "p1790929740128",
    "num": "8",
    "status": "draft",
    "chast": 1
   },
   "geometry": {
    "type": "Polygon",
    "coordinates": [
     [
      [
       7194.104391791934,
       11006.824155949798
      ],
      [
       7382.194795587556,
       11012.48101019929
      ],
      [
       7376.537941338063,
       11142.588657937615
      ],
      [
       7154.506412045487,
       11138.346017250497
      ],
      [
       7194.104391791934,
       11006.824155949798
      ]
     ]
    ]
   }
  },
  {
   "type": "Feature",
   "properties": {
    "fid": "p1790929780178",
    "num": "35",
    "status": "draft",
    "chast": 1,
    "owner_id": "repnin"
   },
   "geometry": {
    "type": "Polygon",
    "coordinates": [
     [
      [
       6840.55100119866,
       12481.848901504936
      ],
      [
       7420.378561771629,
       12481.848901504936
      ],
      [
       7426.035416021122,
       12330.528050331015
      ],
      [
       7956.365501911032,
       12682.667227361915
      ],
      [
       7629.682169002847,
       12684.081440924288
      ],
      [
       7638.1674503770855,
       12617.613403492753
      ],
      [
       6745.798692519663,
       12606.299694993768
      ],
      [
       6840.55100119866,
       12481.848901504936
      ]
     ]
    ]
   }
  }
 ]
}